BEIJING 1               
1 28890U 05043A   17291.19268566  .00000054  00000-0  19989-4 0  9991
2 28890  97.8934  81.4604 0016653 121.3666 238.9170 14.61195607638386
HJ-1A                   
1 33320U 08041A   17291.08597846  .00000207  00000-0  36641-4 0  9994
2 33320  97.9233 353.6995 0026156 352.5492   7.5331 14.76841965490920
HJ-1B                   
1 33321U 08041B   17291.15338337  .00000228  00000-0  39465-4 0  9991
2 33321  97.9284 355.0672 0035068   7.4857 352.6875 14.76922610490922
YAOGAN 4                
1 33446U 08061A   17291.16551357  .00000145  00000-0  27454-4 0  9994
2 33446  97.6028 280.9955 0014393 260.7374  99.2210 14.76705326478172
DEIMOS-1                
1 35681U 09041A   17291.12920063 -.00000061  00000-0 -20231-5 0  9992
2 35681  97.9354 180.5094 0000780  13.5130 346.6106 14.71690871441220
UK-DMC 2                
1 35683U 09041C   17290.96429542  .00000052  00000-0  16161-4 0  9995
2 35683  97.8181 164.9386 0001848  72.0091 288.1335 14.70987923441052
RISAT 1                 
1 38248U 12017A   17291.14716332  .00001096  00000-0  72797-4 0  9995
2 38248  97.5756 297.2669 0004235   8.8942  57.8935 15.09271735301788
DMC3-FM1                
1 40715U 15032A   17291.13597812  .00000055  00000-0  16130-4 0  9999
2 40715  98.0240 185.4502 0017450 101.7893 258.5276 14.73691542122308
DMC3-FM2                
1 40716U 15032B   17291.15864321  .00000043  00000-0  14271-4 0  9995
2 40716  98.0259 185.5751 0014537 109.1700 251.1090 14.73702561122316
DMC3-FM3                
1 40717U 15032C   17291.18152088  .00000064  00000-0  17554-4 0  9999
2 40717  98.0246 186.3342 0018406 103.2637 257.0626 14.73688770122316
